BEIDOU-2 G4             
1 37210U 10057A   24049.59614326 -.00000120  00000+0  00000+0 0  9993
2 37210   1.5601  66.7587 0006582 202.7248 253.2300  1.00271231 48771
SKYTERRA 1              
1 37218U 10061A   24049.57779679 -.00000125  00000+0  00000+0 0  9992
2 37218   3.3908  46.8621 0002201 276.8561 290.9993  1.00272028 48671
HYLAS 1                 
1 37237U 10065A   24047.64065991 -.00000158  00000+0  00000+0 0  9994
2 37237   3.4647  83.3465 0003915 265.1080 184.6464  1.00240767 48447
INTELSAT 17 (IS-17)     
1 37238U 10065B   24049.47670969 -.00000009  00000+0  00000+0 0  9990
2 37238   0.0144 109.7314 0002339 223.1976  52.5944  1.00271520 44719
BEIDOU-2 IGSO-2         
1 37256U 10068A   24049.39630949 -.00000168  00000+0  00000+0 0  9994
2 37256  49.0963 282.2738 0031283 211.3732 264.0519  1.00288877 48273
EUTELSAT KA-SAT 9A      
1 37258U 10069A   24049.25083597  .00000054  00000+0  00000+0 0  9996
2 37258   0.0535 280.9235 0001473  10.9908 315.0295  1.00272146 35478
HISPASAT 30W-5          
1 37264U 10070A   24049.38633024 -.00000223  00000+0  00000+0 0  9994
2 37264   0.0282 118.9626 0002914 212.3434 285.5694  1.00270289 44662
KOREASAT 6              
1 37265U 10070B   24049.52757806 -.00000370  00000+0  00000+0 0  9999
2 37265   0.0189 123.7569 0002262 196.9548 133.1713  1.00272212 48244
BEIDOU-2 IGSO-3         
1 37384U 11013A   24049.41409046 -.00000160  00000+0  00000+0 0  9994
2 37384  61.1840  48.2631 0027172 184.2553 172.2085  1.00289064 47138
INTELSAT NEW DAWN       
1 37392U 11016A   24049.54424491  .00000148  00000+0  00000+0 0  9996
2 37392   0.0064 150.1343 0000106 333.3894 253.1890  1.00275236 44768
YAHSAT 1A               
1 37393U 11016B   24049.54592978  .00000094  00000+0  00000+0 0  9993
2 37393   0.0124 119.5122 0002701 209.8457  67.6482  1.00270600 33881
SBIRS GEO-1 (USA 230)   
1 37481U 11019A   24049.54862748 -.00000012  00000+0  00000+0 0  9990
2 37481   2.7692  46.4284 0002263 282.4362  82.3250  1.00272279 46885
TELSTAR 14R             
1 37602U 11021A   24049.52295580 -.00000287  00000+0  00000+0 0  9994
2 37602   0.0108 134.4766 0002814 204.4939 294.2403  1.00271873 47314
GSAT-8                  
1 37605U 11022A   24049.11682106  .00000078  00000+0  00000+0 0  9994
2 37605   0.0441 278.1592 0007762   6.7931 319.7418  1.00272554 44696
ST-2                    
1 37606U 11022B   24049.64073451 -.00000219  00000+0  00000+0 0  9998
2 37606   0.0215 107.1332 0001713 229.9743 129.6307  1.00271537 46764
CHINASAT 10 (ZX 10)     
1 37677U 11026A   24049.58288993 -.00000360  00000+0  00000+0 0  9999
2 37677   0.0306 287.3119 0001512 285.7736 255.2988  1.00269628 46484
SES-3                   
1 37748U 11035A   24049.57538307 -.00000109  00000+0  00000+0 0  9995
2 37748   0.0590 292.5543 0002960  34.3287 285.2475  1.00271979 46075
KAZSAT-2                
1 37749U 11035B   24049.55271755 -.00000205  00000+0  00000+0 0  9992
2 37749   0.0192 128.8715 0000805 267.4230  37.1833  1.00271664 44867
BEIDOU-2 IGSO-4         
1 37763U 11038A   24049.00017087 -.00000112  00000+0  00000+0 0  9994
2 37763  54.5555 173.2418 0119418 227.0482 202.5260  1.00284241 46124
ASTRA 1N                
1 37775U 11041A   24049.55535611  .00000112  00000+0  00000+0 0  9998
2 37775   0.0557  15.3481 0004650 341.4337  10.3143  1.00270192 36003
BSAT-3C (JCSAT-110R)    
1 37776U 11041B   24049.60444344 -.00000358  00000+0  00000+0 0  9990
2 37776   0.0422 293.6700 0000318 221.6720 320.2377  1.00273381 41968
PAKSAT-1R               
1 37779U 11042A   24049.54424491  .00000146  00000+0  00000+0 0  9992
2 37779   0.0150  74.5183 0001407 309.5038 357.8595  1.00273668 45957
SES-2                   
1 37809U 11049A   24049.51816955 -.00000203  00000+0  00000+0 0  9995
2 37809   0.0098  50.1041 0002587 270.6520 286.7398  1.00271563 45446
ARABSAT-5C              
1 37810U 11049B   24049.55535611  .00000116  00000+0  00000+0 0  9990
2 37810   0.0554  31.0312 0001982 224.5794 112.3018  1.00273684 45532
EUTELSAT 7 WEST A       
1 37816U 11051A   24049.39085542 -.00000067  00000+0  00000+0 0  9990
2 37816   0.0782  44.2327 0003879 201.5632  35.4233  1.00272352 45373
QUETZSAT 1              
1 37826U 11054A   24049.52017108 -.00000249  00000+0  00000+0 0  9994
2 37826   0.0547 289.3451 0002789  52.2312 276.6422  1.00271003 41364
INTELSAT 18 (IS-18)     
1 37834U 11056A   24049.45246128  .00000045  00000+0  00000+0 0  9996
2 37834   0.0141 106.3104 0002069 220.1941 164.2533  1.00271245 45290
EUTELSAT 16A            
1 37836U 11057A   24049.55535611  .00000096  00000+0  00000+0 0  9994
2 37836   0.0691  13.7965 0005055 317.3844  32.7250  1.00273242 37449
VIASAT-1                
1 37843U 11059A   24049.56569806 -.00000030  00000+0  00000+0 0  9997
2 37843   0.0138 152.1097 0002497 175.1959 269.2080  1.00270956 38809
ASIASAT 7               
1 37933U 11069A   24049.55654654 -.00000342  00000+0  00000+0 0  9999
2 37933   0.0448 263.4409 0001868  24.8785 165.5250  1.00273684 36338
BEIDOU-2 IGSO-5         
1 37948U 11073A   24048.62316299 -.00000125  00000+0  00000+0 0  9996
2 37948  49.2279 281.9632 0093568 220.0433 324.6856  1.00278692 44605
LUCH-5A                 
1 37951U 11074B   24049.60344326 -.00000057  00000+0  00000+0 0  9996
2 37951   6.5753  86.9110 0002834 232.9202 212.5934  1.00275926 44539
NIGCOMSAT 1R            
1 38014U 11077A   24049.10465937  .00000138  00000+0  00000+0 0  9996
2 38014   0.0337 106.2268 0003906 233.9932 247.5101  1.00275009 44434
FENGYUN 2F              
1 38049U 12002A   24049.55776485 -.00000367  00000+0  00000+0 0  9990
2 38049   5.2967  74.3151 0002896  32.9757 353.6183  1.00276274 44369
WGS F4 (USA 233)        
1 38070U 12003A   24049.64073509 -.00000222  00000+0  00000+0 0  9992
2 38070   0.0140 104.8210 0000691 134.4340 227.8592  1.00271789 35622
SES-4                   
1 38087U 12007A   24049.38789664 -.00000176  00000+0  00000+0 0  9999
2 38087   0.0254  64.3769 0002547 276.7342 284.3502  1.00270466 43707
BEIDOU-2 G5             
1 38091U 12008A   24049.54723512  .00000048  00000+0  00000+0 0  9990
2 38091   2.1125  70.5925 0009139 230.1660 102.9984  1.00275454 43842
MUOS-1                  
1 38093U 12009A   24049.58743101 -.00000134  00000+0  00000+0 0  9990
2 38093   3.8294  43.5053 0055879 356.4269 219.5735  1.00270960 43925
INTELSAT 22 (IS-22)     
1 38098U 12011A   24049.54984580 -.00000066  00000+0  00000+0 0  9996
2 38098   0.0189  99.9829 0001689 236.1737  81.8640  1.00272498 43284
APSTAR 7                
1 38107U 12013A   24049.55071602 -.00000109  00000+0  00000+0 0  9990
2 38107   0.0354 112.5962 0002695 219.8240  90.3108  1.00271400 43280
YAHSAT 1B               
1 38245U 12016A   24049.54497253  .00000119  00000+0  00000+0 0  9999
2 38245   0.0225 106.3388 0003135 235.3582  50.0598  1.00268756 37071
AEHF-2 (USA 235)        
1 38254U 12019A   24049.57776677 -.00000169  00000+0  00000+0 0  9991
2 38254   4.6872  61.9729 0004377 242.9276 316.9234  1.00271640 42339
JCSAT-13                
1 38331U 12023A   24049.52202111 -.00000364  00000+0  00000+0 0  9991
2 38331   0.0162 159.4601 0002113 185.6008 114.8187  1.00272192 43023
VINASAT-2               
1 38332U 12023B   24049.62989059 -.00000337  00000+0  00000+0 0  9996
2 38332   0.0034 342.7090 0002757 359.6934 164.2522  1.00271812 38143
NIMIQ 6                 
1 38342U 12026A   24049.36296014 -.00000180  00000+0  00000+0 0  9999
2 38342   0.0568 282.8012 0003116  44.7514 219.8055  1.00271023 41900
CHINASAT 2A (ZX 2A)     
1 38352U 12028A   24049.55506715 -.00000300  00000+0  00000+0 0  9999
2 38352   0.0013 199.2576 0004408 161.1015  85.6624  1.00269259 42851
INTELSAT 19 (IS-19)     
1 38356U 12030A   24049.60161135 -.00000064  00000+0  00000+0 0  9992
2 38356   0.0150 108.4246 0003500 227.7161 194.4691  1.00272116 41922
ECHOSTAR 17             
1 38551U 12035A   24049.57301914 -.00000082  00000+0  00000+0 0  9991
2 38551   0.0161 115.3716 0001936 206.8760 284.9369  1.00272389 42542
METEOSAT-10 (MSG-3)     
1 38552U 12035B   24049.24909552 -.00000015  00000+0  00000+0 0  9994
2 38552   2.6992  59.9124 0001750 274.7628 262.8039  1.00268326 42332
SES-5                   
1 38652U 12036A   24049.25005275  .00000026  00000+0  00000+0 0  9997
2 38652   0.0343 337.3980 0001887 339.8170 285.4564  1.00270342 35960
INTELSAT 20 (IS-20)     
1 38740U 12043A   24049.54914962 -.00000032  00000+0  00000+0 0  9995
2 38740   0.0185 126.3566 0002045  61.5905 226.2262  1.00272909 42226
HYLAS 2                 
1 38741U 12043B   24049.54980199  .00000146  00000+0  00000+0 0  9996
2 38741   0.2283  91.7485 0001439 248.2252  36.9666  1.00272326 42247
INTELSAT 21 (IS-21)     
1 38749U 12045A   24049.52089100 -.00000292  00000+0  00000+0 0  9999
2 38749   0.0218 218.5127 0002225 108.1552 310.8017  1.00271474 42005
ASTRA 2F                
1 38778U 12051A   24049.54980199  .00000142  00000+0  00000+0 0  9991
2 38778   0.0790 256.9143 0003114  13.9067 103.2701  1.00268969 32602
GSAT-10                 
1 38779U 12051B   24049.12239051 -.00000172  00000+0  00000+0 0  9994
2 38779   0.1073 271.7328 0004500   0.0527   2.8559  1.00272751 41582
INTELSAT 23 (IS-23)     
1 38867U 12057A   24049.51317800 -.00000292  00000+0  00000+0 0  9993
2 38867   0.0187 164.8494 0000760 261.4687 213.3489  1.00267668 41420
BEIDOU-2 G6             
1 38953U 12059A   24049.55228243 -.00000183  00000+0  00000+0 0  9996
2 38953   2.2545  81.2992 0010526 293.3706  56.1181  1.00269437 41383
LUCH-5B                 
1 38977U 12061A   24049.24587566 -.00000145  00000+0  00000+0 0  9995
2 38977   8.6250  57.7393 0001800 197.2528 324.9073  1.00271542 41098
YAMAL 300K              
1 38978U 12061B   24049.45624454  .00000063  00000+0  00000+0 0  9995
2 38978   0.0072 148.7248 0000679 175.4637 170.8965  1.00269656 41113
